{
  "type": "FeatureCollection",
  "features": [
    {
      "type": "Feature",
      "properties": {
        "norad_id": 34434,
        "name": "COSMOS 2251 DEB",
        "group": "cosmos-2251-debris",
        "lat": -36.747094448300494,
        "lon": 3.113278225918833,
        "alt_km": 1132.3651012648152,
        "timestamp": "2025-12-09T14:52:26.556791+00:00",
        "meta_object_name": "COSMOS 2251 DEB",
        "meta_object_id": "1993-036SB",
        "meta_epoch": "2025-12-09T06:53:59.442720",
        "meta_mean_motion": 13.89770568,
        "meta_eccentricity": 0.02757271,
        "meta_inclination": 74.0628,
        "meta_ra_of_asc_node": 15.9967,
        "meta_arg_of_pericenter": 154.112,
        "meta_mean_anomaly": 305.1342,
        "meta_ephemeris_type": 0,
        "meta_classification_type": "U",
        "meta_norad_cat_id": 34434,
        "meta_element_set_no": 999,
        "meta_rev_at_epoch": 83918,
        "meta_bstar": 0.0020060903,
        "meta_mean_motion_dot": 3.324e-05,
        "meta_mean_motion_ddot": 0,
        "tle_line1": "1 34434U 93036SB  25343.28749355  .00003324  00000+0  20061-2 0  9991",
        "tle_line2": "2 34434  74.0628  15.9967 0275727 154.1120 305.1342 13.89770568839189"
      },
      "geometry": {
        "type": "Point",
        "coordinates": [
          3.113278225918833,
          -36.747094448300494
        ]
      }
    },
    {
      "type": "Feature",
      "properties": {
        "norad_id": 34446,
        "name": "COSMOS 2251 DEB",
        "group": "cosmos-2251-debris",
        "lat": -18.376523773244863,
        "lon": -111.41299050009314,
        "alt_km": 696.0272742776542,
        "timestamp": "2025-12-09T14:52:26.556801+00:00",
        "meta_object_name": "COSMOS 2251 DEB",
        "meta_object_id": "1993-036SP",
        "meta_epoch": "2025-12-09T07:19:52.243392",
        "meta_mean_motion": 14.49347302,
        "meta_eccentricity": 0.0051322,
        "meta_inclination": 74.0423,
        "meta_ra_of_asc_node": 63.7217,
        "meta_arg_of_pericenter": 202.536,
        "meta_mean_anomaly": 157.3547,
        "meta_ephemeris_type": 0,
        "meta_classification_type": "U",
        "meta_norad_cat_id": 34446,
        "meta_element_set_no": 999,
        "meta_rev_at_epoch": 88644,
        "meta_bstar": 0.00027986949,
        "meta_mean_motion_dot": 1.059e-05,
        "meta_mean_motion_ddot": 0,
        "tle_line1": "1 34446U 93036SP  25343.30546578  .00001059  00000+0  27987-3 0  9997",
        "tle_line2": "2 34446  74.0423  63.7217 0051322 202.5360 157.3547 14.49347302886449"
      },
      "geometry": {
        "type": "Point",
        "coordinates": [
          -111.41299050009314,
          -18.376523773244863
        ]
      }
    },
    {
      "type": "Feature",
      "properties": {
        "norad_id": 34449,
        "name": "COSMOS 2251 DEB",
        "group": "cosmos-2251-debris",
        "lat": -16.608060227571343,
        "lon": -98.25146333584816,
        "alt_km": 584.1687519792067,
        "timestamp": "2025-12-09T14:52:26.556811+00:00",
        "meta_object_name": "COSMOS 2251 DEB",
        "meta_object_id": "1993-036SS",
        "meta_epoch": "2025-12-09T07:49:17.409216",
        "meta_mean_motion": 14.94544215,
        "meta_eccentricity": 0.00235658,
        "meta_inclination": 74.0323,
        "meta_ra_of_asc_node": 77.4414,
        "meta_arg_of_pericenter": 122.2048,
        "meta_mean_anomaly": 294.3204,
        "meta_ephemeris_type": 0,
        "meta_classification_type": "U",
        "meta_norad_cat_id": 34449,
        "meta_element_set_no": 999,
        "meta_rev_at_epoch": 88642,
        "meta_bstar": 0.0039384122,
        "meta_mean_motion_dot": 0.00043038,
        "meta_mean_motion_ddot": 0,
        "tle_line1": "1 34449U 93036SS  25343.32589594  .00043038  00000+0  39384-2 0  9993",
        "tle_line2": "2 34449  74.0323  77.4414 0023565 122.2048 294.3204 14.94544215886423"
      },
      "geometry": {
        "type": "Point",
        "coordinates": [
          -98.25146333584816,
          -16.608060227571343
        ]
      }
    },
    {
      "type": "Feature",
      "properties": {
        "norad_id": 34451,
        "name": "COSMOS 2251 DEB",
        "group": "cosmos-2251-debris",
        "lat": 18.754063244844108,
        "lon": -91.41117223715584,
        "alt_km": 569.1142446817066,
        "timestamp": "2025-12-09T14:52:26.556821+00:00",
        "meta_object_name": "COSMOS 2251 DEB",
        "meta_object_id": "1993-036SU",
        "meta_epoch": "2025-12-08T17:17:09.361536",
        "meta_mean_motion": 14.95183105,
        "meta_eccentricity": 0.00246355,
        "meta_inclination": 74.0463,
        "meta_ra_of_asc_node": 95.9753,
        "meta_arg_of_pericenter": 118.67,
        "meta_mean_anomaly": 241.6966,
        "meta_ephemeris_type": 0,
        "meta_classification_type": "U",
        "meta_norad_cat_id": 34451,
        "meta_element_set_no": 999,
        "meta_rev_at_epoch": 88575,
        "meta_bstar": 0.0038625549,
        "meta_mean_motion_dot": 0.00042922,
        "meta_mean_motion_ddot": 0,
        "tle_line1": "1 34451U 93036SU  25342.72024724  .00042922  00000+0  38626-2 0  9997",
        "tle_line2": "2 34451  74.0463  95.9753 0024635 118.6700 241.6966 14.95183105885758"
      },
      "geometry": {
        "type": "Point",
        "coordinates": [
          -91.41117223715584,
          18.754063244844108
        ]
      }
    },
    {
      "type": "Feature",
      "properties": {
        "norad_id": 34452,
        "name": "COSMOS 2251 DEB",
        "group": "cosmos-2251-debris",
        "lat": 63.68525839436376,
        "lon": -135.3547724254178,
        "alt_km": 568.9435202974855,
        "timestamp": "2025-12-09T14:52:26.556831+00:00",
        "meta_object_name": "COSMOS 2251 DEB",
        "meta_object_id": "1993-036SV",
        "meta_epoch": "2025-12-09T00:56:54.570336",
        "meta_mean_motion": 15.11529096,
        "meta_eccentricity": 0.0066815,
        "meta_inclination": 74.036,
        "meta_ra_of_asc_node": 190.4766,
        "meta_arg_of_pericenter": 267.6055,
        "meta_mean_anomaly": 245.021,
        "meta_ephemeris_type": 0,
        "meta_classification_type": "U",
        "meta_norad_cat_id": 34452,
        "meta_element_set_no": 999,
        "meta_rev_at_epoch": 90606,
        "meta_bstar": 0.00087515552,
        "meta_mean_motion_dot": 0.00015644,
        "meta_mean_motion_ddot": 0,
        "tle_line1": "1 34452U 93036SV  25343.03952049  .00015644  00000+0  87516-3 0  9997",
        "tle_line2": "2 34452  74.0360 190.4766 0066815 267.6055 245.0210 15.11529096906064"
      },
      "geometry": {
        "type": "Point",
        "coordinates": [
          -135.3547724254178,
          63.68525839436376
        ]
      }
    },
    {
      "type": "Feature",
      "properties": {
        "norad_id": 34453,
        "name": "COSMOS 2251 DEB",
        "group": "cosmos-2251-debris",
        "lat": -72.59538899184564,
        "lon": -8.349296043873457,
        "alt_km": 351.6257510197147,
        "timestamp": "2025-12-09T14:52:26.556842+00:00",
        "meta_object_name": "COSMOS 2251 DEB",
        "meta_object_id": "1993-036SW",
        "meta_epoch": "2025-12-08T17:54:20.652768",
        "meta_mean_motion": 15.70960191,
        "meta_eccentricity": 0.00219389,
        "meta_inclination": 74.11,
        "meta_ra_of_asc_node": 108.2841,
        "meta_arg_of_pericenter": 342.0248,
        "meta_mean_anomaly": 18.0197,
        "meta_ephemeris_type": 0,
        "meta_classification_type": "U",
        "meta_norad_cat_id": 34453,
        "meta_element_set_no": 999,
        "meta_rev_at_epoch": 88804,
        "meta_bstar": 0.011594108,
        "meta_mean_motion_dot": 0.01651435,
        "meta_mean_motion_ddot": 0,
        "tle_line1": "1 34453U 93036SW  25342.74607237  .01651435  00000+0  11594-1 0  9997",
        "tle_line2": "2 34453  74.1100 108.2841 0021938 342.0248  18.0197 15.70960191888047"
      },
      "geometry": {
        "type": "Point",
        "coordinates": [
          -8.349296043873457,
          -72.59538899184564
        ]
      }
    },
    {
      "type": "Feature",
      "properties": {
        "norad_id": 34454,
        "name": "COSMOS 2251 DEB",
        "group": "cosmos-2251-debris",
        "lat": -18.79020733698799,
        "lon": 108.96390220392121,
        "alt_km": 788.3923972102702,
        "timestamp": "2025-12-09T14:52:26.556852+00:00",
        "meta_object_name": "COSMOS 2251 DEB",
        "meta_object_id": "1993-036SX",
        "meta_epoch": "2025-12-09T05:36:17.697024",
        "meta_mean_motion": 14.38800054,
        "meta_eccentricity": 0.00354592,
        "meta_inclination": 74.0587,
        "meta_ra_of_asc_node": 284.0942,
        "meta_arg_of_pericenter": 347.3197,
        "meta_mean_anomaly": 12.7061,
        "meta_ephemeris_type": 0,
        "meta_classification_type": "U",
        "meta_norad_cat_id": 34454,
        "meta_element_set_no": 999,
        "meta_rev_at_epoch": 88017,
        "meta_bstar": 0.00050323025,
        "meta_mean_motion_dot": 1.532e-05,
        "meta_mean_motion_ddot": 0,
        "tle_line1": "1 34454U 93036SX  25343.23353816  .00001532  00000+0  50323-3 0  9995",
        "tle_line2": "2 34454  74.0587 284.0942 0035459 347.3197  12.7061 14.38800054880176"
      },
      "geometry": {
        "type": "Point",
        "coordinates": [
          108.96390220392121,
          -18.79020733698799
        ]
      }
    }
  ]
}